{
  "type": "FeatureCollection",
  "features": [
    {
      "type": "Feature",
      "properties": {
        "norad_id": 33860,
        "name": "IRIDIUM 33 DEB",
        "group": "iridium-33-debris",
        "lat": 76.63993915991338,
        "lon": 44.19506808101558,
        "alt_km": 660.4186574376145,
        "timestamp": "2025-12-09T07:41:33.595390+00:00",
        "meta_object_name": "IRIDIUM 33 DEB",
        "meta_object_id": "1997-051AD",
        "meta_epoch": "2025-12-08T10:20:45.237696",
        "meta_mean_motion": 14.67281531,
        "meta_eccentricity": 0.00080141,
        "meta_inclination": 86.3837,
        "meta_ra_of_asc_node": 29.1451,
        "meta_arg_of_pericenter": 12.6318,
        "meta_mean_anomaly": 49.2169,
        "meta_ephemeris_type": 0,
        "meta_classification_type": "U",
        "meta_norad_cat_id": 33860,
        "meta_element_set_no": 999,
        "meta_rev_at_epoch": 88659,
        "meta_bstar": 0.0015327477,
        "meta_mean_motion_dot": 8.67e-05,
        "meta_mean_motion_ddot": 0,
        "tle_line1": "1 33860U 97051AD  25342.43107914  .00008670  00000+0  15327-2 0  9997",
        "tle_line2": "2 33860  86.3837  29.1451 0008014  12.6318  49.2169 14.67281531886598"
      },
      "geometry": {
        "type": "Point",
        "coordinates": [
          44.19506808101558,
          76.63993915991338
        ]
      }
    },
    {
      "type": "Feature",
      "properties": {
        "norad_id": 33862,
        "name": "IRIDIUM 33 DEB",
        "group": "iridium-33-debris",
        "lat": 85.07687519204232,
        "lon": 85.84887954032749,
        "alt_km": 617.9241338773982,
        "timestamp": "2025-12-09T07:41:33.595401+00:00",
        "meta_object_name": "IRIDIUM 33 DEB",
        "meta_object_id": "1997-051AF",
        "meta_epoch": "2025-12-08T15:29:23.037792",
        "meta_mean_motion": 14.69371874,
        "meta_eccentricity": 0.0053769,
        "meta_inclination": 86.4088,
        "meta_ra_of_asc_node": 39.3355,
        "meta_arg_of_pericenter": 82.8582,
        "meta_mean_anomaly": 34.8096,
        "meta_ephemeris_type": 0,
        "meta_classification_type": "U",
        "meta_norad_cat_id": 33862,
        "meta_element_set_no": 999,
        "meta_rev_at_epoch": 88763,
        "meta_bstar": 0.0017718,
        "meta_mean_motion_dot": 0.00010737,
        "meta_mean_motion_ddot": 0,
        "tle_line1": "1 33862U 97051AF  25342.64540553  .00010737  00000+0  17718-2 0  9995",
        "tle_line2": "2 33862  86.4088  39.3355 0053769  82.8582  34.8096 14.69371874887631"
      },
      "geometry": {
        "type": "Point",
        "coordinates": [
          85.84887954032749,
          85.07687519204232
        ]
      }
    },
    {
      "type": "Feature",
      "properties": {
        "norad_id": 33866,
        "name": "IRIDIUM 33 DEB",
        "group": "iridium-33-debris",
        "lat": -25.011188942645564,
        "lon": 92.75227564172062,
        "alt_km": 891.5528191156473,
        "timestamp": "2025-12-09T07:41:33.595412+00:00",
        "meta_object_name": "IRIDIUM 33 DEB",
        "meta_object_id": "1997-051AK",
        "meta_epoch": "2025-12-08T20:36:39.868992",
        "meta_mean_motion": 14.2525579,
        "meta_eccentricity": 0.01141524,
        "meta_inclination": 86.3002,
        "meta_ra_of_asc_node": 94.6775,
        "meta_arg_of_pericenter": 173.7602,
        "meta_mean_anomaly": 313.2599,
        "meta_ephemeris_type": 0,
        "meta_classification_type": "U",
        "meta_norad_cat_id": 33866,
        "meta_element_set_no": 999,
        "meta_rev_at_epoch": 86755,
        "meta_bstar": 0.0013239084,
        "meta_mean_motion_dot": 3.351e-05,
        "meta_mean_motion_ddot": 0,
        "tle_line1": "1 33866U 97051AK  25342.85879478  .00003351  00000+0  13239-2 0  9991",
        "tle_line2": "2 33866  86.3002  94.6775 0114152 173.7602 313.2599 14.25255790867558"
      },
      "geometry": {
        "type": "Point",
        "coordinates": [
          92.75227564172062,
          -25.011188942645564
        ]
      }
    },
    {
      "type": "Feature",
      "properties": {
        "norad_id": 33867,
        "name": "IRIDIUM 33 DEB",
        "group": "iridium-33-debris",
        "lat": 81.88782337607807,
        "lon": 145.3702354804313,
        "alt_km": 367.22952265395907,
        "timestamp": "2025-12-09T07:41:33.595426+00:00",
        "meta_object_name": "IRIDIUM 33 DEB",
        "meta_object_id": "1997-051AL",
        "meta_epoch": "2025-12-08T12:48:58.471776",
        "meta_mean_motion": 15.60555774,
        "meta_eccentricity": 0.0012895,
        "meta_inclination": 86.363,
        "meta_ra_of_asc_node": 352.2785,
        "meta_arg_of_pericenter": 90.3716,
        "meta_mean_anomaly": 269.9027,
        "meta_ephemeris_type": 0,
        "meta_classification_type": "U",
        "meta_norad_cat_id": 33867,
        "meta_element_set_no": 999,
        "meta_rev_at_epoch": 89445,
        "meta_bstar": 0.007562,
        "meta_mean_motion_dot": 0.00677686,
        "meta_mean_motion_ddot": 0,
        "tle_line1": "1 33867U 97051AL  25342.53401009  .00677686  00000+0  75620-2 0  9998",
        "tle_line2": "2 33867  86.3630 352.2785 0012895  90.3716 269.9027 15.60555774894458"
      },
      "geometry": {
        "type": "Point",
        "coordinates": [
          145.3702354804313,
          81.88782337607807
        ]
      }
    },
    {
      "type": "Feature",
      "properties": {
        "norad_id": 33870,
        "name": "IRIDIUM 33 DEB",
        "group": "iridium-33-debris",
        "lat": -0.6496606891739537,
        "lon": -120.23248646022819,
        "alt_km": 727.6689949848333,
        "timestamp": "2025-12-09T07:41:33.595438+00:00",
        "meta_object_name": "IRIDIUM 33 DEB",
        "meta_object_id": "1997-051AP",
        "meta_epoch": "2025-12-08T23:22:35.143968",
        "meta_mean_motion": 14.45818414,
        "meta_eccentricity": 0.00210587,
        "meta_inclination": 86.3747,
        "meta_ra_of_asc_node": 59.8748,
        "meta_arg_of_pericenter": 190.5386,
        "meta_mean_anomaly": 347.6141,
        "meta_ephemeris_type": 0,
        "meta_classification_type": "U",
        "meta_norad_cat_id": 33870,
        "meta_element_set_no": 999,
        "meta_rev_at_epoch": 88082,
        "meta_bstar": 0.0010488792,
        "meta_mean_motion_dot": 3.75e-05,
        "meta_mean_motion_ddot": 0,
        "tle_line1": "1 33870U 97051AP  25342.97401787  .00003750  00000+0  10489-2 0  9990",
        "tle_line2": "2 33870  86.3747  59.8748 0021058 190.5386 347.6141 14.45818414880829"
      },
      "geometry": {
        "type": "Point",
        "coordinates": [
          -120.23248646022819,
          -0.6496606891739537
        ]
      }
    },
    {
      "type": "Feature",
      "properties": {
        "norad_id": 33881,
        "name": "IRIDIUM 33 DEB",
        "group": "iridium-33-debris",
        "lat": -81.07918430826817,
        "lon": 84.49259502783023,
        "alt_km": 713.6882539051694,
        "timestamp": "2025-12-09T07:41:33.595449+00:00",
        "meta_object_name": "IRIDIUM 33 DEB",
        "meta_object_id": "1997-051BA",
        "meta_epoch": "2025-12-08T21:05:51.876960",
        "meta_mean_motion": 14.5645843,
        "meta_eccentricity": 0.00614279,
        "meta_inclination": 86.3871,
        "meta_ra_of_asc_node": 108.42,
        "meta_arg_of_pericenter": 187.1593,
        "meta_mean_anomaly": 297.143,
        "meta_ephemeris_type": 0,
        "meta_classification_type": "U",
        "meta_norad_cat_id": 33881,
        "meta_element_set_no": 999,
        "meta_rev_at_epoch": 87444,
        "meta_bstar": 0.0024669743,
        "meta_mean_motion_dot": 0.00011273,
        "meta_mean_motion_ddot": 0,
        "tle_line1": "1 33881U 97051BA  25342.87907265  .00011273  00000+0  24670-2 0  9999",
        "tle_line2": "2 33881  86.3871 108.4200 0061427 187.1593 297.1430 14.56458430874440"
      },
      "geometry": {
        "type": "Point",
        "coordinates": [
          84.49259502783023,
          -81.07918430826817
        ]
      }
    },
    {
      "type": "Feature",
      "properties": {
        "norad_id": 33884,
        "name": "IRIDIUM 33 DEB",
        "group": "iridium-33-debris",
        "lat": -32.19177752927796,
        "lon": 9.070646505902737,
        "alt_km": 636.9698401295036,
        "timestamp": "2025-12-09T07:41:33.595459+00:00",
        "meta_object_name": "IRIDIUM 33 DEB",
        "meta_object_id": "1997-051BD",
        "meta_epoch": "2025-12-08T14:31:15.449088",
        "meta_mean_motion": 14.77305834,
        "meta_eccentricity": 0.0010135,
        "meta_inclination": 86.3691,
        "meta_ra_of_asc_node": 11.6845,
        "meta_arg_of_pericenter": 339.4756,
        "meta_mean_anomaly": 145.6855,
        "meta_ephemeris_type": 0,
        "meta_classification_type": "U",
        "meta_norad_cat_id": 33884,
        "meta_element_set_no": 999,
        "meta_rev_at_epoch": 88786,
        "meta_bstar": 0.0017784,
        "meta_mean_motion_dot": 0.00012665,
        "meta_mean_motion_ddot": 0,
        "tle_line1": "1 33884U 97051BD  25342.60503992  .00012665  00000+0  17784-2 0  9996",
        "tle_line2": "2 33884  86.3691  11.6845 0010135 339.4756 145.6855 14.77305834887866"
      },
      "geometry": {
        "type": "Point",
        "coordinates": [
          9.070646505902737,
          -32.19177752927796
        ]
      }
    }
  ]
}